{
"type": "FeatureCollection",
"name": "photos_fov",
"crs": { "type": "name", "properties": { "name": "urn:ogc:def:crs:OGC:1.3:CRS84" } },
"features": [
{ "type": "Feature", "properties": { "title": "Convento del Carmine ruderi, 1940-1950", "date": "1945-01-01", "filename": "Piazza_Carmine-anni-1940-1950-restored.jpg", "text": "Convento del Carmine ruderi, 1940-1950" }, "geometry": { "type": "Polygon", "coordinates": [ [ [ 14.37222674, 41.35539924 ], [ 14.37226942, 41.35535474 ], [ 14.37213319, 41.35525257 ], [ 14.37222674, 41.35539924 ] ] ] } },
{ "type": "Feature", "properties": { "title": "Parata Legione Matese, circa 1910", "date": "1910-01-01", "filename": "ViaAntonioGaetani_1910-restored.jpg", "text": "Parata Legione Matese, circa 1910" }, "geometry": { "type": "Polygon", "coordinates": [ [ [ 14.37189422, 41.35523187 ], [ 14.37157426, 41.35529405 ], [ 14.37186353, 41.3552972 ], [ 14.37189422, 41.35523187 ] ] ] } },
{ "type": "Feature", "properties": { "title": "Via_Carmine_Cotonificio", "date": "1945-01-01", "filename": "Via_Carmine_Cotonificio_denoise.jpg", "text": "Via_Carmine_Cotonificio" }, "geometry": { "type": "Polygon", "coordinates": [ [ [ 14.3722226, 41.35538965 ], [ 14.37234874, 41.35540291 ], [ 14.37227137, 41.35530823 ], [ 14.3722226, 41.35538965 ] ] ] } },
{ "type": "Feature", "properties": { "title": "Ciminera cotonificio, abbattimento, 1972", "date": "1972-01-01", "filename": "abbattimento_ciminera_1972-restored.jpg", "text": "Ciminera cotonificio, abbattimento, 1972" }, "geometry": { "type": "Polygon", "coordinates": [ [ [ 14.3721737, 41.3546818 ], [ 14.3721622, 41.3542348 ], [ 14.3716486, 41.354419 ], [ 14.3721737, 41.3546818 ] ] ] } },
{ "type": "Feature", "properties": { "title": "ciminiera cotonificio dalla pretura", "date": "1965-01-01", "filename": "Ciminiera_cotonificio_dalla_pretura-restored-color.jpg", "text": "ciminiera cotonificio dalla pretura" }, "geometry": { "type": "Polygon", "coordinates": [ [ [ 14.3721232, 41.3539565 ], [ 14.3711113, 41.3545726 ], [ 14.37182246, 41.35521182 ], [ 14.3721232, 41.3539565 ] ] ] } },
{ "type": "Feature", "properties": { "title": "Cotonificio da Via dei Fossi con canavine", "date": "1910-01-01", "filename": "Cotonificio_da_via_fossi_cannavine_pre-1920-restored-color.jpg", "text": "Cotonificio da Via dei Fossi con canavine" }, "geometry": { "type": "Polygon", "coordinates": [ [ [ 14.3696651, 41.3535122 ], [ 14.3704924, 41.3549701 ], [ 14.3724572, 41.3542472 ], [ 14.3696651, 41.3535122 ] ] ] } },
{ "type": "Feature", "properties": { "title": "cotonificio retro convento", "date": "1900-01-01", "filename": "Cotonificio_retro_convento-restored.jpg", "text": "cotonificio retro convento" }, "geometry": { "type": "Polygon", "coordinates": [ [ [ 14.37198421, 41.35475736 ], [ 14.37213189, 41.35501836 ], [ 14.37230481, 41.35481489 ], [ 14.37198421, 41.35475736 ] ] ] } },
{ "type": "Feature", "properties": { "title": "piazzacarmine con ciminiera", "date": "1970-01-01", "filename": "piazzacarmine_con_ciminiera.jpg", "text": "piazzacarmine con ciminiera" }, "geometry": { "type": "Polygon", "coordinates": [ [ [ 14.37186984, 41.35521607 ], [ 14.3724656, 41.3544283 ], [ 14.3716567, 41.3545028 ], [ 14.37186984, 41.35521607 ] ] ] } },
{ "type": "Feature", "properties": { "title": "Processione dal Ponte S.Lucia, 1958", "date": "1958-01-01", "filename": "PiazzaCarmine_processione_dal_Ponte_SLucia_verso_ruderiCotonificio_anni60-restored.jpg", "text": "Processione dal Ponte S.Lucia, 1958" }, "geometry": { "type": "Polygon", "coordinates": [ [ [ 14.3718587, 41.35521449 ], [ 14.37198399, 41.35526467 ], [ 14.37208784, 41.35517851 ], [ 14.3718587, 41.35521449 ] ] ] } },
{ "type": "Feature", "properties": { "title": "Via Carmine, Ingresso Cotonificio, inizio 1900", "date": "1900-01-01", "filename": "ViaCarmine-ponte_torano_verso_piazza_carmine_1900.jpg", "text": "Via Carmine, Ingresso Cotonificio, inizio 1900" }, "geometry": { "type": "Polygon", "coordinates": [ [ [ 14.37159419, 41.35528481 ], [ 14.37221629, 41.35534475 ], [ 14.37199924, 41.35519581 ], [ 14.37159419, 41.35528481 ] ] ] } },
{ "type": "Feature", "properties": { "title": "Via Carmine, Macerie Convento, Scale", "date": "1960-01-01", "filename": "Via_CarmineMacerie_Scale-restored.jpg", "text": "Via Carmine, Macerie Convento, Scale" }, "geometry": { "type": "Polygon", "coordinates": [ [ [ 14.372349, 41.3553991 ], [ 14.3728166, 41.3550454 ], [ 14.37225627, 41.35529675 ], [ 14.372349, 41.3553991 ] ] ] } },
{ "type": "Feature", "properties": { "title": "Video Isitituo Luce, anni_1920-1930-CLIP-frame_0097-restored-color.jpg", "date": "1924-01-31", "filename": "video_cotonificio-anni_1920-1930-CLIP-frame_0097-restored-color.jpg", "text": "Video Isitituo Luce, anni_1920-1930-CLIP-frame_0097-restored-color.jpg" }, "geometry": { "type": "Polygon", "coordinates": [ [ [ 14.37249294, 41.35472365 ], [ 14.37229718, 41.35443387 ], [ 14.37193628, 41.35434028 ], [ 14.37249294, 41.35472365 ] ] ] } }
]
}
