{
"type": "FeatureCollection",
"name": "photos_origin",
"crs": { "type": "name", "properties": { "name": "urn:ogc:def:crs:OGC:1.3:CRS84" } },
"features": [
{ "type": "Feature", "properties": { "title": "Convento del Carmine ruderi, 1940-1950", "date": "1945-01-01", "labels": "piazza carmine,convento del carmine,cotonificio,commerci storici", "filename": "Piazza_Carmine-anni-1940-1950-restored.jpg", "photo_post_rel_url": "/photos/piazza-carmine-anni-1940-1950/", "permalink": "/photos/piazza-carmine-anni-1940-1950/", "text": "Convento del Carmine ruderi, 1940-1950" }, "geometry": { "type": "Point", "coordinates": [ 14.37222674, 41.35539924 ] } },
{ "type": "Feature", "properties": { "title": "Parata Legione Matese, circa 1910", "date": "1910-01-01", "labels": "ponte santa lucia,via antonio gaetani,legione matese", "filename": "ViaAntonioGaetani_1910-restored.jpg", "photo_post_rel_url": "/photos/viaantoniogaetani-1910/", "permalink": "/photos/viaantoniogaetani-1910/", "text": "Parata Legione Matese, circa 1910" }, "geometry": { "type": "Point", "coordinates": [ 14.37189422, 41.35523187 ] } },
{ "type": "Feature", "properties": { "title": "Via_Carmine_Cotonificio", "date": "1945-01-01", "labels": "via carmine,cotonificio,convento carmine,commerci storici", "filename": "Via_Carmine_Cotonificio_denoise.jpg", "photo_post_rel_url": "/photos/via-carmine-cotonificio/", "permalink": "/photos/via-carmine-cotonificio/", "text": "Via_Carmine_Cotonificio" }, "geometry": { "type": "Point", "coordinates": [ 14.3722226, 41.35538965 ] } },
{ "type": "Feature", "properties": { "title": "Ciminera cotonificio, abbattimento, 1972", "date": "1972-01-01", "labels": "piazza carmine,ciminera,abbattimento", "filename": "abbattimento_ciminera_1972-restored.jpg", "photo_post_rel_url": "/photos/abbattimento-ciminera-1972/", "permalink": "/photos/abbattimento-ciminera-1972/", "text": "Ciminera cotonificio, abbattimento, 1972" }, "geometry": { "type": "Point", "coordinates": [ 14.3721737, 41.3546818 ] } },
{ "type": "Feature", "properties": { "title": "ciminiera cotonificio dalla pretura", "date": "1965-01-01", "labels": "piazza carmine,ciminera,ruderi cotonificio", "filename": "Ciminiera_cotonificio_dalla_pretura-restored-color.jpg", "photo_post_rel_url": "/photos/ciminiera-cotonificio-dalla-pretura/", "permalink": "/photos/ciminiera-cotonificio-dalla-pretura/", "text": "ciminiera cotonificio dalla pretura" }, "geometry": { "type": "Point", "coordinates": [ 14.3721232, 41.3539565 ] } },
{ "type": "Feature", "properties": { "title": "Cotonificio da Via dei Fossi con canavine", "date": "1910-01-01", "labels": "cannavine,cotonificio", "filename": "Cotonificio_da_via_fossi_cannavine_pre-1920-restored-color.jpg", "photo_post_rel_url": "/photos/cotonificio-dalla-stazione-cannavine-pre-1920/", "permalink": "/photos/cotonificio-dalla-stazione-cannavine-pre-1920/", "text": "Cotonificio da Via dei Fossi con canavine" }, "geometry": { "type": "Point", "coordinates": [ 14.3696651, 41.3535122 ] } },
{ "type": "Feature", "properties": { "title": "cotonificio retro convento", "date": "1900-01-01", "labels": "piazza carmine,ciminera,ruderi cotonificio", "filename": "Cotonificio_retro_convento-restored.jpg", "photo_post_rel_url": "/photos/cotonificio-retro-convento/", "permalink": "/photos/cotonificio-retro-convento/", "text": "cotonificio retro convento" }, "geometry": { "type": "Point", "coordinates": [ 14.37198421, 41.35475736 ] } },
{ "type": "Feature", "properties": { "title": "piazzacarmine con ciminiera", "date": "1970-01-01", "labels": "piazza carmine,ciminera", "filename": "piazzacarmine_con_ciminiera.jpg", "photo_post_rel_url": "/photos/piazzacarmine-con-ciminiera/", "permalink": "/photos/piazzacarmine-con-ciminiera/", "text": "piazzacarmine con ciminiera" }, "geometry": { "type": "Point", "coordinates": [ 14.37186984, 41.35521607 ] } },
{ "type": "Feature", "properties": { "title": "Processione dal Ponte S.Lucia, 1958", "date": "1958-01-01", "labels": "piazza carmine,convento carmine,via carmine", "filename": "PiazzaCarmine_processione_dal_Ponte_SLucia_verso_ruderiCotonificio_anni60-restored.jpg", "photo_post_rel_url": "/photos/piazzacarmine-processione-dal-ponte-slucia-verso-rudericotonificio-anni60/", "permalink": "/photos/piazzacarmine-processione-dal-ponte-slucia-verso-rudericotonificio-anni60/", "text": "Processione dal Ponte S.Lucia, 1958" }, "geometry": { "type": "Point", "coordinates": [ 14.3718587, 41.35521449 ] } },
{ "type": "Feature", "properties": { "title": "Via Carmine, Ingresso Cotonificio, inizio 1900", "date": "1900-01-01", "labels": "piazza carmine,via carmine,ponte santa lucia", "filename": "ViaCarmine-ponte_torano_verso_piazza_carmine_1900.jpg", "photo_post_rel_url": "/photos/viacarmine-ponte-torano-verso-piazza-carmine-1900/", "permalink": "/photos/viacarmine-ponte-torano-verso-piazza-carmine-1900/", "text": "Via Carmine, Ingresso Cotonificio, inizio 1900" }, "geometry": { "type": "Point", "coordinates": [ 14.37159419, 41.35528481 ] } },
{ "type": "Feature", "properties": { "title": "Via Carmine, Macerie Convento, Scale", "date": "1960-01-01", "labels": "via carmine,convento,commerci storici", "filename": "Via_CarmineMacerie_Scale-restored.jpg", "photo_post_rel_url": "/photos/via-carminemacerie-scale/", "permalink": "/photos/via-carminemacerie-scale/", "text": "Via Carmine, Macerie Convento, Scale" }, "geometry": { "type": "Point", "coordinates": [ 14.372349, 41.3553991 ] } },
{ "type": "Feature", "properties": { "title": "Video Isitituo Luce, 1924, Torano nel Cotonificio", "date": "1924-01-31", "labels": "canale,cotonificio", "filename": "video_cotonificio-anni_1920-1930-CLIP-frame_0097-restored-color.jpg", "photo_post_rel_url": "/photos/video-cotonificio-anni-1920-1930-clip-frame-0097/", "permalink": "/photos/video-cotonificio-anni-1920-1930-clip-frame-0097/", "text": "Video Isitituo Luce, 1924, Torano nel Cotonificio" }, "geometry": { "type": "Point", "coordinates": [ 14.37249294, 41.35472365 ] } }
]
}
